start=new Date('2021-09-19T00:00:00.000Z').valueOf();
sats=[{"GP_ID":"184948911","CENTER_NAME":"EARTH","MEAN_MOTION":"15.06392907","APOAPSIS":"548.127","SEMIMAJOR_AXIS":"6925.370","REV_AT_EPOCH":"6113","MEAN_MOTION_DOT":"-0.00000891","CLASSIFICATION_TYPE":"U","DECAY_DATE":null,"TLE_LINE2":"2 46140  53.0562  48.2160 0001288 107.6569 252.4561 15.06392907 61130","EPHEMERIS_TYPE":"0","RA_OF_ASC_NODE":"48.2160","TIME_SYSTEM":"UTC","PERIOD":"95.593","TLE_LINE1":"1 46140U 20057Z   21261.51962394 -.00000891  00000-0 -40911-4 0  9999","MEAN_ANOMALY":"252.4561","MEAN_ELEMENT_THEORY":"SGP4","INCLINATION":"53.0562","LAUNCH_DATE":"2020-08-18","COUNTRY_CODE":"US","REF_FRAME":"TEME","RCS_SIZE":"LARGE","ECCENTRICITY":"0.00012880","OBJECT_NAME":"STARLINK-1594","MEAN_MOTION_DDOT":"0.0000000000000","ARG_OF_PERICENTER":"107.6569","BSTAR":"-0.00004091100000","ELEMENT_SET_NO":"999","PERIAPSIS":"546.343","EPOCH":"2021-09-18T12:28:15.508416","SITE":"AFETR","OBJECT_ID":"2020-057Z","OBJECT_TYPE":"PAYLOAD","NORAD_CAT_ID":"46140","FILE":"3118631"},{"OBJECT_ID":"2020-057AA","EPOCH":"2021-09-18T16:43:01.352352","SITE":"AFETR","PERIAPSIS":"546.088","NORAD_CAT_ID":"46141","FILE":"3118781","OBJECT_TYPE":"PAYLOAD","OBJECT_NAME":"STARLINK-1596","ECCENTRICITY":"0.00016510","ELEMENT_SET_NO":"999","MEAN_MOTION_DDOT":"0.0000000000000","ARG_OF_PERICENTER":"113.0852","BSTAR":"-0.00004401100000","COUNTRY_CODE":"US","LAUNCH_DATE":"2020-08-18","REF_FRAME":"TEME","RCS_SIZE":"LARGE","INCLINATION":"53.0569","TLE_LINE1":"1 46141U 20057AA  21261.69654343 -.00000937  00000-0 -44011-4 0  9997","MEAN_ELEMENT_THEORY":"SGP4","MEAN_ANOMALY":"247.0311","PERIOD":"95.593","TIME_SYSTEM":"UTC","RA_OF_ASC_NODE":"47.4207","DECAY_DATE":null,"CLASSIFICATION_TYPE":"U","EPHEMERIS_TYPE":"0","TLE_LINE2":"2 46141  53.0569  47.4207 0001651 113.0852 247.0311 15.06394216 60497","APOAPSIS":"548.375","MEAN_MOTION":"15.06394216","CENTER_NAME":"EARTH","GP_ID":"184973470","MEAN_MOTION_DOT":"-0.00000937","SEMIMAJOR_AXIS":"6925.366","REV_AT_EPOCH":"6049"},{"RCS_SIZE":"LARGE","REF_FRAME":"TEME","COUNTRY_CODE":"US","LAUNCH_DATE":"2020-08-18","INCLINATION":"53.0560","FILE":"3118781","NORAD_CAT_ID":"46142","OBJECT_TYPE":"PAYLOAD","OBJECT_ID":"2020-057AB","SITE":"AFETR","EPOCH":"2021-09-18T18:45:06.543072","PERIAPSIS":"546.061","ELEMENT_SET_NO":"999","BSTAR":"-0.00001896900000","MEAN_MOTION_DDOT":"0.0000000000000","ARG_OF_PERICENTER":"94.0738","OBJECT_NAME":"STARLINK-1597","ECCENTRICITY":"0.00016940","EPHEMERIS_TYPE":"0","TLE_LINE2":"2 46142  53.0560  87.0259 0001694  94.0738 266.0444 15.06393231 59946","CLASSIFICATION_TYPE":"U","DECAY_DATE":null,"MEAN_MOTION_DOT":"-0.00000564","SEMIMAJOR_AXIS":"6925.369","REV_AT_EPOCH":"5994","APOAPSIS":"548.407","MEAN_MOTION":"15.06393231","CENTER_NAME":"EARTH","GP_ID":"184973721","MEAN_ELEMENT_THEORY":"SGP4","MEAN_ANOMALY":"266.0444","TLE_LINE1":"1 46142U 20057AB  21261.78132573 -.00000564  00000-0 -18969-4 0  9993","PERIOD":"95.593","TIME_SYSTEM":"UTC","RA_OF_ASC_NODE":"87.0259"},{"COUNTRY_CODE":"US","LAUNCH_DATE":"2020-08-18","RCS_SIZE":"LARGE","REF_FRAME":"TEME","INCLINATION":"53.0551","OBJECT_ID":"2020-057AC","EPOCH":"2021-09-18T17:59:59.247456","SITE":"AFETR","PERIAPSIS":"546.144","NORAD_CAT_ID":"46143","FILE":"3118781","OBJECT_TYPE":"PAYLOAD","OBJECT_NAME":"STARLINK-1599","ECCENTRICITY":"0.00015360","ELEMENT_SET_NO":"999","BSTAR":"0.00008021900000","MEAN_MOTION_DDOT":"0.0000000000000","ARG_OF_PERICENTER":"103.0892","DECAY_DATE":null,"CLASSIFICATION_TYPE":"U","EPHEMERIS_TYPE":"0","TLE_LINE2":"2 46143  53.0551  67.1752 0001536 103.0892 257.0269 15.06401827 60220","APOAPSIS":"548.272","MEAN_MOTION":"15.06401827","GP_ID":"184973972","CENTER_NAME":"EARTH","MEAN_MOTION_DOT":"0.00000914","SEMIMAJOR_AXIS":"6925.343","REV_AT_EPOCH":"6022","TLE_LINE1":"1 46143U 20057AC  21261.74999129  .00000914  00000-0  80219-4 0  9992","MEAN_ELEMENT_THEORY":"SGP4","MEAN_ANOMALY":"257.0269","PERIOD":"95.592","TIME_SYSTEM":"UTC","RA_OF_ASC_NODE":"67.1752"},{"MEAN_MOTION_DDOT":"0.0000000000000","BSTAR":"0.00008113600000","ARG_OF_PERICENTER":"81.3848","ELEMENT_SET_NO":"999","ECCENTRICITY":"0.00018240","OBJECT_NAME":"STARLINK-1606","OBJECT_TYPE":"PAYLOAD","FILE":"3118781","NORAD_CAT_ID":"46144","SITE":"AFETR","EPOCH":"2021-09-18T17:54:41.188320","PERIAPSIS":"545.949","OBJECT_ID":"2020-057AD","INCLINATION":"53.0553","REF_FRAME":"TEME","RCS_SIZE":"LARGE","COUNTRY_CODE":"US","LAUNCH_DATE":"2020-08-18","RA_OF_ASC_NODE":"67.1893","PERIOD":"95.592","TIME_SYSTEM":"UTC","MEAN_ELEMENT_THEORY":"SGP4","MEAN_ANOMALY":"278.7348","TLE_LINE1":"1 46144U 20057AD  21261.74631005  .00000927  00000-0  81136-4 0  9992","SEMIMAJOR_AXIS":"6925.347","REV_AT_EPOCH":"4847","MEAN_MOTION_DOT":"0.00000927","GP_ID":"184974723","CENTER_NAME":"EARTH","APOAPSIS":"548.475","MEAN_MOTION":"15.06400580","TLE_LINE2":"2 46144  53.0553  67.1893 0001824  81.3848 278.7348 15.06400580 48474","EPHEMERIS_TYPE":"0","CLASSIFICATION_TYPE":"U","DECAY_DATE":null},{"COUNTRY_CODE":"US","LAUNCH_DATE":"2020-08-18","REF_FRAME":"TEME","RCS_SIZE":"LARGE","INCLINATION":"53.0525","OBJECT_ID":"2020-057AE","SITE":"AFETR","EPOCH":"2021-09-18T19:22:52.148928","PERIAPSIS":"298.140","FILE":"3118781","NORAD_CAT_ID":"46145","OBJECT_TYPE":"PAYLOAD","OBJECT_NAME":"STARLINK-1607","ECCENTRICITY":"0.00037690","ELEMENT_SET_NO":"999","ARG_OF_PERICENTER":"278.0090","MEAN_MOTION_DDOT":"0.0000462950000","BSTAR":"0.00098589000000","DECAY_DATE":null,"CLASSIFICATION_TYPE":"U","TLE_LINE2":"2 46145  53.0525  42.0626 0003769 278.0090  82.0508 15.90581393 61849","EPHEMERIS_TYPE":"0","APOAPSIS":"303.174","MEAN_MOTION":"15.90581393","GP_ID":"184972970","CENTER_NAME":"EARTH","MEAN_MOTION_DOT":"0.00308289","REV_AT_EPOCH":"6184","SEMIMAJOR_AXIS":"6678.792","TLE_LINE1":"1 46145U 20057AE  21261.80754802  .00308289  46295-4  98589-3 0  9992","MEAN_ELEMENT_THEORY":"SGP4","MEAN_ANOMALY":"82.0508","PERIOD":"90.533","TIME_SYSTEM":"UTC","RA_OF_ASC_NODE":"42.0626"},{"OBJECT_ID":"2020-057AF","EPOCH":"2021-09-18T19:01:00.735168","SITE":"AFETR","PERIAPSIS":"545.778","FILE":"3118781","NORAD_CAT_ID":"46146","OBJECT_TYPE":"PAYLOAD","OBJECT_NAME":"STARLINK-1608","ECCENTRICITY":"0.00020450","ELEMENT_SET_NO":"999","MEAN_MOTION_DDOT":"0.0000000000000","BSTAR":"0.00009376300000","ARG_OF_PERICENTER":"92.9479","COUNTRY_CODE":"US","LAUNCH_DATE":"2020-08-18","REF_FRAME":"TEME","RCS_SIZE":"LARGE","INCLINATION":"53.0553","TLE_LINE1":"1 46146U 20057AF  21261.79236962  .00001115  00000-0  93763-4 0  9991","MEAN_ELEMENT_THEORY":"SGP4","MEAN_ANOMALY":"267.1744","PERIOD":"95.592","TIME_SYSTEM":"UTC","RA_OF_ASC_NODE":"86.9920","CLASSIFICATION_TYPE":"U","DECAY_DATE":null,"TLE_LINE2":"2 46146  53.0553  86.9920 0002045  92.9479 267.1744 15.06406198 59958","EPHEMERIS_TYPE":"0","APOAPSIS":"548.611","MEAN_MOTION":"15.06406198","GP_ID":"184973221","CENTER_NAME":"EARTH","MEAN_MOTION_DOT":"0.00001115","SEMIMAJOR_AXIS":"6925.330","REV_AT_EPOCH":"5995"},{"PERIOD":"95.592","TIME_SYSTEM":"UTC","RA_OF_ASC_NODE":"87.0718","TLE_LINE1":"1 46147U 20057AG  21261.77394526  .00001010  00000-0  86723-4 0  9993","MEAN_ELEMENT_THEORY":"SGP4","MEAN_ANOMALY":"273.8594","APOAPSIS":"548.506","MEAN_MOTION":"15.06401289","GP_ID":"184974473","CENTER_NAME":"EARTH","MEAN_MOTION_DOT":"0.00001010","SEMIMAJOR_AXIS":"6925.345","REV_AT_EPOCH":"6120","DECAY_DATE":null,"CLASSIFICATION_TYPE":"U","TLE_LINE2":"2 46147  53.0553  87.0718 0001872  86.2609 273.8594 15.06401289 61208","EPHEMERIS_TYPE":"0","OBJECT_NAME":"STARLINK-1611","ECCENTRICITY":"0.00018720","ELEMENT_SET_NO":"999","MEAN_MOTION_DDOT":"0.0000000000000","ARG_OF_PERICENTER":"86.2609","BSTAR":"0.00008672300000","OBJECT_ID":"2020-057AG","SITE":"AFETR","EPOCH":"2021-09-18T18:34:28.870464","PERIAPSIS":"545.913","NORAD_CAT_ID":"46147","FILE":"3118781","OBJECT_TYPE":"PAYLOAD","INCLINATION":"53.0553","COUNTRY_CODE":"US","LAUNCH_DATE":"2020-08-18","REF_FRAME":"TEME","RCS_SIZE":"LARGE"},{"PERIOD":"95.591","TIME_SYSTEM":"UTC","RA_OF_ASC_NODE":"68.2289","MEAN_ELEMENT_THEORY":"SGP4","MEAN_ANOMALY":"259.7554","TLE_LINE1":"1 46148U 20057AH  21261.51409159 -.00005826  00000-0 -37236-3 0  9990","MEAN_MOTION_DOT":"-0.00005826","SEMIMAJOR_AXIS":"6925.295","REV_AT_EPOCH":"6084","APOAPSIS":"548.261","MEAN_MOTION":"15.06417635","GP_ID":"184948980","CENTER_NAME":"EARTH","TLE_LINE2":"2 46148  53.0537  68.2289 0001591 100.3615 259.7554 15.06417635 60848","EPHEMERIS_TYPE":"0","CLASSIFICATION_TYPE":"U","DECAY_DATE":null,"ELEMENT_SET_NO":"999","ARG_OF_PERICENTER":"100.3615","MEAN_MOTION_DDOT":"0.0000000000000","BSTAR":"-0.00037236000000","OBJECT_NAME":"STARLINK-1616","ECCENTRICITY":"0.00015910","FILE":"3118629","NORAD_CAT_ID":"46148","OBJECT_TYPE":"PAYLOAD","OBJECT_ID":"2020-057AH","EPOCH":"2021-09-18T12:20:17.513376","SITE":"AFETR","PERIAPSIS":"546.058","INCLINATION":"53.0537","RCS_SIZE":"LARGE","REF_FRAME":"TEME","COUNTRY_CODE":"US","LAUNCH_DATE":"2020-08-18"},{"REV_AT_EPOCH":"6149","SEMIMAJOR_AXIS":"6925.373","MEAN_MOTION_DOT":"-0.00000756","CENTER_NAME":"EARTH","GP_ID":"184973471","APOAPSIS":"548.445","MEAN_MOTION":"15.06392138","TLE_LINE2":"2 46149  53.0554  67.2756 0001744  94.9086 265.2102 15.06392138 61499","EPHEMERIS_TYPE":"0","DECAY_DATE":null,"CLASSIFICATION_TYPE":"U","RA_OF_ASC_NODE":"67.2756","PERIOD":"95.593","TIME_SYSTEM":"UTC","MEAN_ELEMENT_THEORY":"SGP4","MEAN_ANOMALY":"265.2102","TLE_LINE1":"1 46149U 20057AJ  21261.72787664 -.00000756  00000-0 -31883-4 0  9994","INCLINATION":"53.0554","REF_FRAME":"TEME","RCS_SIZE":"LARGE","COUNTRY_CODE":"US","LAUNCH_DATE":"2020-08-18","BSTAR":"-0.00003188300000","MEAN_MOTION_DDOT":"0.0000000000000","ARG_OF_PERICENTER":"94.9086","ELEMENT_SET_NO":"999","ECCENTRICITY":"0.00017440","OBJECT_NAME":"STARLINK-1620","OBJECT_TYPE":"PAYLOAD","NORAD_CAT_ID":"46149","FILE":"3118781","SITE":"AFETR","EPOCH":"2021-09-18T17:28:08.541696","PERIAPSIS":"546.030","OBJECT_ID":"2020-057AJ"}];
